STARLINK-36196          
1 67107U 25299F   26011.58335648  .00018150  00000+0  44154-3 0  9995
2 67107  42.9997 137.6093 0001332 264.3279  37.3330 15.40644102  5601
STARLINK-36208          
1 67108U 25299G   26011.58335648 -.02081004  00000+0 -46757-1 0  9997
2 67108  42.9990 137.4261 0001562 274.6595 102.4516 15.46094989  5608
STARLINK-35764          
1 67109U 25299H   26011.61852688  .00037688  00000+0  90434-3 0  9998
2 67109  43.0010 137.7370 0000844 238.9339 121.1435 15.40722733  5404
STARLINK-35781          
1 67110U 25299J   26011.58335648  .00019526  00000+0  47414-3 0  9999
2 67110  42.9998 137.7285 0001404 266.9807 344.8913 15.40658506  5555
STARLINK-35875          
1 67111U 25299K   26011.58335648  .00038456  00000+0  92461-3 0  9995
2 67111  42.9991 137.4885 0001666 286.2330  65.1249 15.40653818  5497
STARLINK-35906          
1 67112U 25299L   26011.58335648 -.02057967  00000+0 -40475-1 0  9994
2 67112  42.9991 137.3857 0001865 277.9072 114.7758 15.49826689  5490
STARLINK-35789          
1 67113U 25299M   26011.58335648  .00018120  00000+0  44053-3 0  9997
2 67113  42.9998 137.6677 0001801 274.3430   2.3975 15.40663718  5496
STARLINK-36180          
1 67114U 25299N   26011.64120488  .00090829  00000+0  15349-2 0  9990
2 67114  42.9985 137.0338 0001527 282.2094  77.8595 15.50602229  4327
STARLINK-35892          
1 67115U 25299P   26011.61404630  .00017421  00000+0  42314-3 0  9992
2 67115  42.9978 137.6991 0001623 278.1026  81.9646 15.40715498  4311
STARLINK-35738          
1 67116U 25299Q   26011.00002315  .00002281  00000+0  61808-4 0  9998
2 67116  42.9997 141.1478 0001657 280.6237 306.8805 15.40724857  5408
STARLINK-35674          
1 67117U 25299R   26011.62300870  .00029815  00000+0  71762-3 0  9995
2 67117  42.9991 137.7691 0001528 279.3043  80.7640 15.40725093  4315
STARLINK-35701          
1 67118U 25299S   26011.58335648  .00031860  00000+0  76777-3 0  9996
2 67118  42.9993 137.4555 0001607 273.0143  90.7836 15.40660786  5556
