CCSDS_OMM_VERS = 2.0
CREATION_DATE  = 
ORIGINATOR     = 

OBJECT_NAME    = STARLINK-36196
OBJECT_ID      = 2025-299F
CENTER_NAME    = EARTH
REF_FRAME      = TEME
TIME_SYSTEM    = UTC
MEAN_ELEMENT_THEORY = SGP/SGP4

EPOCH          = 2026-01-11T14:00:01.999872
MEAN_MOTION    = 15.40644102
ECCENTRICITY   = .00013325
INCLINATION    = 42.9997
RA_OF_ASC_NODE = 137.6093
ARG_OF_PERICENTER = 264.3279
MEAN_ANOMALY   = 37.3330

EPHEMERIS_TYPE = 0
CLASSIFICATION_TYPE = U
NORAD_CAT_ID   = 67107
ELEMENT_SET_NO = 999
REV_AT_EPOCH   = 560
BSTAR          = .44153613E-3
MEAN_MOTION_DOT = .1815E-3
MEAN_MOTION_DDOT = 0

CCSDS_OMM_VERS = 2.0
CREATION_DATE  = 
ORIGINATOR     = 

OBJECT_NAME    = STARLINK-36208
OBJECT_ID      = 2025-299G
CENTER_NAME    = EARTH
REF_FRAME      = TEME
TIME_SYSTEM    = UTC
MEAN_ELEMENT_THEORY = SGP/SGP4

EPOCH          = 2026-01-11T14:00:01.999872
MEAN_MOTION    = 15.46094989
ECCENTRICITY   = .00015624
INCLINATION    = 42.9990
RA_OF_ASC_NODE = 137.4261
ARG_OF_PERICENTER = 274.6595
MEAN_ANOMALY   = 102.4516

EPHEMERIS_TYPE = 0
CLASSIFICATION_TYPE = U
NORAD_CAT_ID   = 67108
ELEMENT_SET_NO = 999
REV_AT_EPOCH   = 560
BSTAR          = -.46756625E-1
MEAN_MOTION_DOT = -.2081004E-1
MEAN_MOTION_DDOT = 0

CCSDS_OMM_VERS = 2.0
CREATION_DATE  = 
ORIGINATOR     = 

OBJECT_NAME    = STARLINK-35764
OBJECT_ID      = 2025-299H
CENTER_NAME    = EARTH
REF_FRAME      = TEME
TIME_SYSTEM    = UTC
MEAN_ELEMENT_THEORY = SGP/SGP4

EPOCH          = 2026-01-11T14:50:40.722432
MEAN_MOTION    = 15.40722733
ECCENTRICITY   = .00008445
INCLINATION    = 43.0010
RA_OF_ASC_NODE = 137.7370
ARG_OF_PERICENTER = 238.9339
MEAN_ANOMALY   = 121.1435

EPHEMERIS_TYPE = 0
CLASSIFICATION_TYPE = U
NORAD_CAT_ID   = 67109
ELEMENT_SET_NO = 999
REV_AT_EPOCH   = 540
BSTAR          = .90434482E-3
MEAN_MOTION_DOT = .37688E-3
MEAN_MOTION_DDOT = 0

CCSDS_OMM_VERS = 2.0
CREATION_DATE  = 
ORIGINATOR     = 

OBJECT_NAME    = STARLINK-35781
OBJECT_ID      = 2025-299J
CENTER_NAME    = EARTH
REF_FRAME      = TEME
TIME_SYSTEM    = UTC
MEAN_ELEMENT_THEORY = SGP/SGP4

EPOCH          = 2026-01-11T14:00:01.999872
MEAN_MOTION    = 15.40658506
ECCENTRICITY   = .00014046
INCLINATION    = 42.9998
RA_OF_ASC_NODE = 137.7285
ARG_OF_PERICENTER = 266.9807
MEAN_ANOMALY   = 344.8913

EPHEMERIS_TYPE = 0
CLASSIFICATION_TYPE = U
NORAD_CAT_ID   = 67110
ELEMENT_SET_NO = 999
REV_AT_EPOCH   = 555
BSTAR          = .47414169E-3
MEAN_MOTION_DOT = .19526E-3
MEAN_MOTION_DDOT = 0

CCSDS_OMM_VERS = 2.0
CREATION_DATE  = 
ORIGINATOR     = 

OBJECT_NAME    = STARLINK-35875
OBJECT_ID      = 2025-299K
CENTER_NAME    = EARTH
REF_FRAME      = TEME
TIME_SYSTEM    = UTC
MEAN_ELEMENT_THEORY = SGP/SGP4

EPOCH          = 2026-01-11T14:00:01.999872
MEAN_MOTION    = 15.40653818
ECCENTRICITY   = .0001666
INCLINATION    = 42.9991
RA_OF_ASC_NODE = 137.4885
ARG_OF_PERICENTER = 286.2330
MEAN_ANOMALY   = 65.1249

EPHEMERIS_TYPE = 0
CLASSIFICATION_TYPE = U
NORAD_CAT_ID   = 67111
ELEMENT_SET_NO = 999
REV_AT_EPOCH   = 549
BSTAR          = .92461322E-3
MEAN_MOTION_DOT = .38456E-3
MEAN_MOTION_DDOT = 0

CCSDS_OMM_VERS = 2.0
CREATION_DATE  = 
ORIGINATOR     = 

OBJECT_NAME    = STARLINK-35906
OBJECT_ID      = 2025-299L
CENTER_NAME    = EARTH
REF_FRAME      = TEME
TIME_SYSTEM    = UTC
MEAN_ELEMENT_THEORY = SGP/SGP4

EPOCH          = 2026-01-11T14:00:01.999872
MEAN_MOTION    = 15.49826689
ECCENTRICITY   = .0001865
INCLINATION    = 42.9991
RA_OF_ASC_NODE = 137.3857
ARG_OF_PERICENTER = 277.9072
MEAN_ANOMALY   = 114.7758

EPHEMERIS_TYPE = 0
CLASSIFICATION_TYPE = U
NORAD_CAT_ID   = 67112
ELEMENT_SET_NO = 999
REV_AT_EPOCH   = 549
BSTAR          = -.4047548E-1
MEAN_MOTION_DOT = -.2057967E-1
MEAN_MOTION_DDOT = 0

CCSDS_OMM_VERS = 2.0
CREATION_DATE  = 
ORIGINATOR     = 

OBJECT_NAME    = STARLINK-35789
OBJECT_ID      = 2025-299M
CENTER_NAME    = EARTH
REF_FRAME      = TEME
TIME_SYSTEM    = UTC
MEAN_ELEMENT_THEORY = SGP/SGP4

EPOCH          = 2026-01-11T14:00:01.999872
MEAN_MOTION    = 15.40663718
ECCENTRICITY   = .00018018
INCLINATION    = 42.9998
RA_OF_ASC_NODE = 137.6677
ARG_OF_PERICENTER = 274.3430
MEAN_ANOMALY   = 2.3975

EPHEMERIS_TYPE = 0
CLASSIFICATION_TYPE = U
NORAD_CAT_ID   = 67113
ELEMENT_SET_NO = 999
REV_AT_EPOCH   = 549
BSTAR          = .44053077E-3
MEAN_MOTION_DOT = .1812E-3
MEAN_MOTION_DDOT = 0

CCSDS_OMM_VERS = 2.0
CREATION_DATE  = 
ORIGINATOR     = 

OBJECT_NAME    = STARLINK-36180
OBJECT_ID      = 2025-299N
CENTER_NAME    = EARTH
REF_FRAME      = TEME
TIME_SYSTEM    = UTC
MEAN_ELEMENT_THEORY = SGP/SGP4

EPOCH          = 2026-01-11T15:23:20.101632
MEAN_MOTION    = 15.50602229
ECCENTRICITY   = .00015273
INCLINATION    = 42.9985
RA_OF_ASC_NODE = 137.0338
ARG_OF_PERICENTER = 282.2094
MEAN_ANOMALY   = 77.8595

EPHEMERIS_TYPE = 0
CLASSIFICATION_TYPE = U
NORAD_CAT_ID   = 67114
ELEMENT_SET_NO = 999
REV_AT_EPOCH   = 432
BSTAR          = .15348795E-2
MEAN_MOTION_DOT = .90829E-3
MEAN_MOTION_DDOT = 0

CCSDS_OMM_VERS = 2.0
CREATION_DATE  = 
ORIGINATOR     = 

OBJECT_NAME    = STARLINK-35892
OBJECT_ID      = 2025-299P
CENTER_NAME    = EARTH
REF_FRAME      = TEME
TIME_SYSTEM    = UTC
MEAN_ELEMENT_THEORY = SGP/SGP4

EPOCH          = 2026-01-11T14:44:13.600320
MEAN_MOTION    = 15.40715498
ECCENTRICITY   = .00016239
INCLINATION    = 42.9978
RA_OF_ASC_NODE = 137.6991
ARG_OF_PERICENTER = 278.1026
MEAN_ANOMALY   = 81.9646

EPHEMERIS_TYPE = 0
CLASSIFICATION_TYPE = U
NORAD_CAT_ID   = 67115
ELEMENT_SET_NO = 999
REV_AT_EPOCH   = 431
BSTAR          = .42313696E-3
MEAN_MOTION_DOT = .17421E-3
MEAN_MOTION_DDOT = 0

CCSDS_OMM_VERS = 2.0
CREATION_DATE  = 
ORIGINATOR     = 

OBJECT_NAME    = STARLINK-35738
OBJECT_ID      = 2025-299Q
CENTER_NAME    = EARTH
REF_FRAME      = TEME
TIME_SYSTEM    = UTC
MEAN_ELEMENT_THEORY = SGP/SGP4

EPOCH          = 2026-01-11T00:00:02.000160
MEAN_MOTION    = 15.40724857
ECCENTRICITY   = .00016579
INCLINATION    = 42.9997
RA_OF_ASC_NODE = 141.1478
ARG_OF_PERICENTER = 280.6237
MEAN_ANOMALY   = 306.8805

EPHEMERIS_TYPE = 0
CLASSIFICATION_TYPE = U
NORAD_CAT_ID   = 67116
ELEMENT_SET_NO = 999
REV_AT_EPOCH   = 540
BSTAR          = .61808175E-4
MEAN_MOTION_DOT = .2281E-4
MEAN_MOTION_DDOT = 0

CCSDS_OMM_VERS = 2.0
CREATION_DATE  = 
ORIGINATOR     = 

OBJECT_NAME    = STARLINK-35674
OBJECT_ID      = 2025-299R
CENTER_NAME    = EARTH
REF_FRAME      = TEME
TIME_SYSTEM    = UTC
MEAN_ELEMENT_THEORY = SGP/SGP4

EPOCH          = 2026-01-11T14:57:07.951680
MEAN_MOTION    = 15.40725093
ECCENTRICITY   = .0001528
INCLINATION    = 42.9991
RA_OF_ASC_NODE = 137.7691
ARG_OF_PERICENTER = 279.3043
MEAN_ANOMALY   = 80.7640

EPHEMERIS_TYPE = 0
CLASSIFICATION_TYPE = U
NORAD_CAT_ID   = 67117
ELEMENT_SET_NO = 999
REV_AT_EPOCH   = 431
BSTAR          = .71762358E-3
MEAN_MOTION_DOT = .29815E-3
MEAN_MOTION_DDOT = 0

CCSDS_OMM_VERS = 2.0
CREATION_DATE  = 
ORIGINATOR     = 

OBJECT_NAME    = STARLINK-35701
OBJECT_ID      = 2025-299S
CENTER_NAME    = EARTH
REF_FRAME      = TEME
TIME_SYSTEM    = UTC
MEAN_ELEMENT_THEORY = SGP/SGP4

EPOCH          = 2026-01-11T14:00:01.999872
MEAN_MOTION    = 15.40660786
ECCENTRICITY   = .00016078
INCLINATION    = 42.9993
RA_OF_ASC_NODE = 137.4555
ARG_OF_PERICENTER = 273.0143
MEAN_ANOMALY   = 90.7836

EPHEMERIS_TYPE = 0
CLASSIFICATION_TYPE = U
NORAD_CAT_ID   = 67118
ELEMENT_SET_NO = 999
REV_AT_EPOCH   = 555
BSTAR          = .76776631E-3
MEAN_MOTION_DOT = .3186E-3
MEAN_MOTION_DDOT = 0

